COSMOS 2433 (720)       
1 32275U 07052A   24174.85003088 -.00000043  00000+0  00000+0 0  9999
2 32275  65.9341 340.1975 0001647 194.9909 165.0077  2.13104072129623
COSMOS 2432 (719)       
1 32276U 07052B   24173.29295013 -.00000045  00000+0  00000+0 0  9990
2 32276  65.9495 340.3633 0008339 336.1075 215.5881  2.13103250129616
COSMOS 2434 (721)       
1 32393U 07065A   24173.75947979  .00000099  00000+0  00000+0 0  9998
2 32393  64.3196 216.4198 0000133  77.8969  57.7375  2.13103215128312
COSMOS 2436 (723)       
1 32395U 07065C   24175.29198803  .00000089  00000+0  00000+0 0  9994
2 32395  64.3283 216.4325 0015942 353.1593  13.3597  2.13102910128304
COSMOS 2456 (730)       
1 36111U 09070A   24175.49098862  .00000006  00000+0  00000+0 0  9997
2 36111  64.6149  95.7406 0004626 319.4363 219.1779  2.13099092113008
COSMOS 2457 (733)       
1 36112U 09070B   24173.40559123 -.00000008  00000+0  00000+0 0  9992
2 36112  64.5986  95.6708 0003044 160.6594 351.2110  2.13101297112968
COSMOS 2460 (732)       
1 36402U 10007C   24174.61360432 -.00000044  00000+0  00000+0 0  9993
2 36402  65.7904 338.8704 0002056  92.5884 257.9962  2.13106262111286
COSMOS 2476 (744)       
1 37867U 11064A   24174.07185382 -.00000001  00000+0  00000+0 0  9995
2 37867  64.8879  97.4262 0022665 239.1337 202.6416  2.13101638 98311
COSMOS 2477 (745)       
1 37868U 11064B   24174.44326420  .00000001  00000+0  00000+0 0  9996
2 37868  64.8952  97.4862 0019889 240.4969 304.3156  2.13103129 98318
COSMOS 2475 (743)       
1 37869U 11064C   24174.95697676  .00000005  00000+0  00000+0 0  9991
2 37869  64.9025  97.4836 0024925 255.0912 282.2024  2.13101946 98334
COSMOS 2485 (747)       
1 39155U 13019A   24173.90711965 -.00000002  00000+0  00000+0 0  9993
2 39155  65.0454  98.0171 0022952 235.1054 124.6790  2.13101859 86828
COSMOS 2492 (754)       
1 39620U 14012A   24173.39325325 -.00000046  00000+0  00000+0 0  9996
2 39620  65.6724 338.4877 0011114 328.3059  31.6309  2.13103169 79778
COSMOS 2500 (755)       
1 40001U 14032A   24174.04182355 -.00000045  00000+0  00000+0 0  9999
2 40001  65.6093 338.2707 0006374 184.5512 175.4457  2.13106056 78004
COSMOS 2501 (702K)      
1 40315U 14075A   24174.76439058  .00000093  00000+0  00000+0 0  9990
2 40315  63.6212 215.4824 0020882 210.9598 149.0073  2.13101458 74410
COSMOS 2514 (751)       
1 41330U 16008A   24174.27746554 -.00000045  00000+0  00000+0 0  9992
2 41330  65.4043 337.7709 0009873 199.7927 160.1708  2.13102666 65171
COSMOS 2522 (752)       
1 42939U 17055A   24175.05643900  .00000091  00000+0  00000+0 0  9999
2 42939  64.0824 216.5664 0010067 240.5744 119.4157  2.13101910 52545
COSMOS 2527 (756)       
1 43508U 18053A   24174.54619767  .00000003  00000+0  00000+0 0  9991
2 43508  65.2059  98.1487 0008028 238.6956 121.2290  2.13102282 46832
COSMOS 2529 (757)       
1 43687U 18086A   24173.70671521  .00000099  00000+0  00000+0 0  9993
2 43687  64.2977 217.1264 0011415 259.1255 100.8408  2.13102102 43829
COSMOS 2534 (758)       
1 44299U 19030A   24174.47063211  .00000095  00000+0  00000+0 0  9995
2 44299  64.3705 217.0546 0013243 278.6737  81.5830  2.13102277 39487
COSMOS 2544 (759)       
1 44850U 19088A   24174.95949451  .00000006  00000+0  00000+0 0  9995
2 44850  65.1926  97.9719 0013413 260.2352  99.6191  2.13102066 35280
COSMOS 2545 (760)       
1 45358U 20018A   24174.21792465 -.00000046  00000+0  00000+0 0  9999
2 45358  64.7441 337.7797 0007638 236.5787 123.3501  2.13102577 33210
COSMOS 2547 (705K)      
1 46805U 20075A   24175.34375036  .00000089  00000+0  00000+0 0  9992
2 46805  64.5995 216.6682 0008765 241.1722 118.8295  2.13103059 28489
COSMOS 2557 (706K)      
1 52984U 22075A   24174.57018928 -.00000046  00000+0  00000+0 0  9991
2 52984  64.6703 339.8971 0010588 280.2805  79.6037  2.13102118 15279
COSMOS 2559 (707K)      
1 54031U 22130A   24174.04383208 -.00000047  00000+0  00000+0 0  9997
2 54031  64.6420 340.0329 0005702 212.2658 147.7041  2.13101435 13231
COSMOS 2564 (761)       
1 54377U 22161A   24175.17345488  .00000091  00000+0  00000+0 0  9995
2 54377  64.7408 216.7796 0011329 224.3397 135.6600  2.13102131 12201
COSMOS 2569 (703K)      
1 57517U 23114A   24175.19059393  .00000006  00000+0  00000+0 0  9998
2 57517  64.9195  97.1113 0011318 297.7294  62.1641  2.13103697  6836
